KUIPER-00028            
1 63741U 25088T   26074.23444181  .00003318  00000+0  46410-3 0  9992
2 63741  51.8990  68.5350 0001166  64.2568 295.8514 14.79924211 48889
KUIPER-00029            
1 63742U 25088U   26074.16941247 -.00010209  00000+0 -13121-2 0  9991
2 63742  51.9020  66.3670 0001048  88.5728 271.5354 14.79934147 48435
KUIPER-00030            
1 63743U 25088V   26074.31639967  .00003578  00000+0  49688-3 0  9999
2 63743  51.9003  85.6612 0010935  86.6355 273.5858 14.80025253 48462
KUIPER-00031            
1 63744U 25088W   26074.29532324  .00003923  00000+0  49704-3 0  9999
2 63744  51.8991  70.7537 0001701 154.7091 205.3956 14.83717435 48380
KUIPER-00032            
1 63745U 25088X   26074.06345211  .00021554  00000+0  58462-3 0  9993
2 63745  51.8712 358.2342 0005257 130.9226 229.2217 15.37551333 50376
KUIPER-00033            
1 63746U 25088Y   26074.28055473  .00004331  00000+0  54821-3 0  9995
2 63746  51.8997 100.9935 0001075  51.3516 308.7544 14.83532918 48443
KUIPER-00034            
1 63747U 25088Z   26074.25001157 -.00027244  00000+0 -34706-2 0  9992
2 63747  51.9002  63.5104 0000695  76.8589 338.4282 14.80985636  5665
KUIPER-00035            
1 63748U 25088AA  26074.27511487  .00004376  00000+0  55581-3 0  9991
2 63748  51.8987  89.0349 0003971  85.8293 274.3125 14.83370303 48341
KUIPER-00037            
1 63749U 25088AB  26074.31394946  .00003389  00000+0  47316-3 0  9996
2 63749  51.8997  88.1877 0000832  80.7024 279.4032 14.79954936 49145
KUIPER-00038            
1 63750U 25088AC  26074.19538014  .00001662  00000+0  24719-3 0  9994
2 63750  51.9031  73.7471 0000739 100.1880 259.9165 14.79887389 48337
KUIPER-00039            
1 64500U 25134A   26074.10019495  .00005672  00000+0  77249-3 0  9999
2 64500  51.9003 209.1663 0000645  89.2057 270.8979 14.79928207 40878
KUIPER-00040            
1 64501U 25134B   26073.95244811  .00080107  00000+0  10334-1 0  9990
2 64501  51.8991 220.9586 0011947 287.4313  72.5343 14.80208786 40690
KUIPER-00041            
1 64502U 25134C   26072.81679672  .00004439  00000+0  62757-3 0  9994
2 64502  51.8985 227.4681 0007090 280.3421  79.6741 14.78773872 40508
KUIPER-00042            
1 64503U 25134D   26073.61746411  .00005734  00000+0  77990-3 0  9994
2 64503  51.8990 219.7990 0006949 299.0868  60.9398 14.79960455 40682
KUIPER-00043            
1 64504U 25134E   26073.91668981  .00004199  00000+0  57885-3 0  9998
2 64504  51.9001 209.9156 0000748  67.4107 214.4961 14.79977689  1301
KUIPER-00044            
1 64505U 25134F   26073.81476829  .00004992  00000+0  68224-3 0  9996
2 64505  51.8986 223.9250 0007812 293.2172  66.7968 14.79995104 40641
