[{"OBJECT_NAME":"KUIPER-00028","OBJECT_ID":"2025-088T","EPOCH":"2026-03-15T05:37:35.772384","MEAN_MOTION":14.79924211,"ECCENTRICITY":0.00011666,"INCLINATION":51.899,"RA_OF_ASC_NODE":68.535,"ARG_OF_PERICENTER":64.2568,"MEAN_ANOMALY":295.8514,"EPHEMERIS_TYPE":0,"CLASSIFICATION_TYPE":"U","NORAD_CAT_ID":63741,"ELEMENT_SET_NO":999,"REV_AT_EPOCH":4888,"BSTAR":0.00046410036,"MEAN_MOTION_DOT":3.318e-5,"MEAN_MOTION_DDOT":0},{"OBJECT_NAME":"KUIPER-00029","OBJECT_ID":"2025-088U","EPOCH":"2026-03-15T04:03:57.237408","MEAN_MOTION":14.79934147,"ECCENTRICITY":0.0001048,"INCLINATION":51.902,"RA_OF_ASC_NODE":66.367,"ARG_OF_PERICENTER":88.5728,"MEAN_ANOMALY":271.5354,"EPHEMERIS_TYPE":0,"CLASSIFICATION_TYPE":"U","NORAD_CAT_ID":63742,"ELEMENT_SET_NO":999,"REV_AT_EPOCH":4843,"BSTAR":-0.0013120763,"MEAN_MOTION_DOT":-0.00010209,"MEAN_MOTION_DDOT":0},{"OBJECT_NAME":"KUIPER-00030","OBJECT_ID":"2025-088V","EPOCH":"2026-03-15T07:35:36.931488","MEAN_MOTION":14.80025253,"ECCENTRICITY":0.00109359,"INCLINATION":51.9003,"RA_OF_ASC_NODE":85.6612,"ARG_OF_PERICENTER":86.6355,"MEAN_ANOMALY":273.5858,"EPHEMERIS_TYPE":0,"CLASSIFICATION_TYPE":"U","NORAD_CAT_ID":63743,"ELEMENT_SET_NO":999,"REV_AT_EPOCH":4846,"BSTAR":0.00049687557,"MEAN_MOTION_DOT":3.578e-5,"MEAN_MOTION_DDOT":0},{"OBJECT_NAME":"KUIPER-00031","OBJECT_ID":"2025-088W","EPOCH":"2026-03-15T07:05:15.927936","MEAN_MOTION":14.83717435,"ECCENTRICITY":0.00017012,"INCLINATION":51.8991,"RA_OF_ASC_NODE":70.7537,"ARG_OF_PERICENTER":154.7091,"MEAN_ANOMALY":205.3956,"EPHEMERIS_TYPE":0,"CLASSIFICATION_TYPE":"U","NORAD_CAT_ID":63744,"ELEMENT_SET_NO":999,"REV_AT_EPOCH":4838,"BSTAR":0.00049704033,"MEAN_MOTION_DOT":3.923e-5,"MEAN_MOTION_DDOT":0},{"OBJECT_NAME":"KUIPER-00032","OBJECT_ID":"2025-088X","EPOCH":"2026-03-15T01:31:22.262304","MEAN_MOTION":15.37551333,"ECCENTRICITY":0.00052577,"INCLINATION":51.8712,"RA_OF_ASC_NODE":358.2342,"ARG_OF_PERICENTER":130.9226,"MEAN_ANOMALY":229.2217,"EPHEMERIS_TYPE":0,"CLASSIFICATION_TYPE":"U","NORAD_CAT_ID":63745,"ELEMENT_SET_NO":999,"REV_AT_EPOCH":5037,"BSTAR":0.00058461776,"MEAN_MOTION_DOT":0.00021554,"MEAN_MOTION_DDOT":0},{"OBJECT_NAME":"KUIPER-00033","OBJECT_ID":"2025-088Y","EPOCH":"2026-03-15T06:43:59.928672","MEAN_MOTION":14.83532918,"ECCENTRICITY":0.00010755,"INCLINATION":51.8997,"RA_OF_ASC_NODE":100.9935,"ARG_OF_PERICENTER":51.3516,"MEAN_ANOMALY":308.7544,"EPHEMERIS_TYPE":0,"CLASSIFICATION_TYPE":"U","NORAD_CAT_ID":63746,"ELEMENT_SET_NO":999,"REV_AT_EPOCH":4844,"BSTAR":0.00054821311,"MEAN_MOTION_DOT":4.331e-5,"MEAN_MOTION_DDOT":0},{"OBJECT_NAME":"KUIPER-00034","OBJECT_ID":"2025-088Z","EPOCH":"2026-03-15T06:00:00.999648","MEAN_MOTION":14.80985636,"ECCENTRICITY":6.953e-5,"INCLINATION":51.9002,"RA_OF_ASC_NODE":63.5104,"ARG_OF_PERICENTER":76.8589,"MEAN_ANOMALY":338.4282,"EPHEMERIS_TYPE":0,"CLASSIFICATION_TYPE":"U","NORAD_CAT_ID":63747,"ELEMENT_SET_NO":999,"REV_AT_EPOCH":566,"BSTAR":-0.0034706022,"MEAN_MOTION_DOT":-0.00027244,"MEAN_MOTION_DDOT":0},{"OBJECT_NAME":"KUIPER-00035","OBJECT_ID":"2025-088AA","EPOCH":"2026-03-15T06:36:09.924768","MEAN_MOTION":14.83370303,"ECCENTRICITY":0.00039717,"INCLINATION":51.8987,"RA_OF_ASC_NODE":89.0349,"ARG_OF_PERICENTER":85.8293,"MEAN_ANOMALY":274.3125,"EPHEMERIS_TYPE":0,"CLASSIFICATION_TYPE":"U","NORAD_CAT_ID":63748,"ELEMENT_SET_NO":999,"REV_AT_EPOCH":4834,"BSTAR":0.00055581362,"MEAN_MOTION_DOT":4.376e-5,"MEAN_MOTION_DDOT":0},{"OBJECT_NAME":"KUIPER-00037","OBJECT_ID":"2025-088AB","EPOCH":"2026-03-15T07:32:05.233344","MEAN_MOTION":14.79954936,"ECCENTRICITY":8.32e-5,"INCLINATION":51.8997,"RA_OF_ASC_NODE":88.1877,"ARG_OF_PERICENTER":80.7024,"MEAN_ANOMALY":279.4032,"EPHEMERIS_TYPE":0,"CLASSIFICATION_TYPE":"U","NORAD_CAT_ID":63749,"ELEMENT_SET_NO":999,"REV_AT_EPOCH":4914,"BSTAR":0.00047315615,"MEAN_MOTION_DOT":3.389e-5,"MEAN_MOTION_DDOT":0},{"OBJECT_NAME":"KUIPER-00038","OBJECT_ID":"2025-088AC","EPOCH":"2026-03-15T04:41:20.844096","MEAN_MOTION":14.79887389,"ECCENTRICITY":7.395e-5,"INCLINATION":51.9031,"RA_OF_ASC_NODE":73.7471,"ARG_OF_PERICENTER":100.188,"MEAN_ANOMALY":259.9165,"EPHEMERIS_TYPE":0,"CLASSIFICATION_TYPE":"U","NORAD_CAT_ID":63750,"ELEMENT_SET_NO":999,"REV_AT_EPOCH":4833,"BSTAR":0.00024719112,"MEAN_MOTION_DOT":1.662e-5,"MEAN_MOTION_DDOT":0},{"OBJECT_NAME":"KUIPER-00039","OBJECT_ID":"2025-134A","EPOCH":"2026-03-15T02:24:16.843680","MEAN_MOTION":14.79928207,"ECCENTRICITY":6.451e-5,"INCLINATION":51.9003,"RA_OF_ASC_NODE":209.1663,"ARG_OF_PERICENTER":89.2057,"MEAN_ANOMALY":270.8979,"EPHEMERIS_TYPE":0,"CLASSIFICATION_TYPE":"U","NORAD_CAT_ID":64500,"ELEMENT_SET_NO":999,"REV_AT_EPOCH":4087,"BSTAR":0.00077249441,"MEAN_MOTION_DOT":5.672e-5,"MEAN_MOTION_DDOT":0},{"OBJECT_NAME":"KUIPER-00040","OBJECT_ID":"2025-134B","EPOCH":"2026-03-14T22:51:31.516704","MEAN_MOTION":14.80208786,"ECCENTRICITY":0.00119479,"INCLINATION":51.8991,"RA_OF_ASC_NODE":220.9586,"ARG_OF_PERICENTER":287.4313,"MEAN_ANOMALY":72.5343,"EPHEMERIS_TYPE":0,"CLASSIFICATION_TYPE":"U","NORAD_CAT_ID":64501,"ELEMENT_SET_NO":999,"REV_AT_EPOCH":4069,"BSTAR":0.010333692,"MEAN_MOTION_DOT":0.00080107,"MEAN_MOTION_DDOT":0},{"OBJECT_NAME":"KUIPER-00041","OBJECT_ID":"2025-134C","EPOCH":"2026-03-13T19:36:11.236608","MEAN_MOTION":14.78773872,"ECCENTRICITY":0.00070909,"INCLINATION":51.8985,"RA_OF_ASC_NODE":227.4681,"ARG_OF_PERICENTER":280.3421,"MEAN_ANOMALY":79.6741,"EPHEMERIS_TYPE":0,"CLASSIFICATION_TYPE":"U","NORAD_CAT_ID":64502,"ELEMENT_SET_NO":999,"REV_AT_EPOCH":4050,"BSTAR":0.00062757409,"MEAN_MOTION_DOT":4.439e-5,"MEAN_MOTION_DDOT":0},{"OBJECT_NAME":"KUIPER-00042","OBJECT_ID":"2025-134D","EPOCH":"2026-03-14T14:49:08.899104","MEAN_MOTION":14.79960455,"ECCENTRICITY":0.00069491,"INCLINATION":51.899,"RA_OF_ASC_NODE":219.799,"ARG_OF_PERICENTER":299.0868,"MEAN_ANOMALY":60.9398,"EPHEMERIS_TYPE":0,"CLASSIFICATION_TYPE":"U","NORAD_CAT_ID":64503,"ELEMENT_SET_NO":999,"REV_AT_EPOCH":4068,"BSTAR":0.0007798976,"MEAN_MOTION_DOT":5.734e-5,"MEAN_MOTION_DDOT":0},{"OBJECT_NAME":"KUIPER-00043","OBJECT_ID":"2025-134E","EPOCH":"2026-03-14T22:00:01.999584","MEAN_MOTION":14.79977689,"ECCENTRICITY":7.486e-5,"INCLINATION":51.9001,"RA_OF_ASC_NODE":209.9156,"ARG_OF_PERICENTER":67.4107,"MEAN_ANOMALY":214.4961,"EPHEMERIS_TYPE":0,"CLASSIFICATION_TYPE":"U","NORAD_CAT_ID":64504,"ELEMENT_SET_NO":999,"REV_AT_EPOCH":130,"BSTAR":0.00057885114,"MEAN_MOTION_DOT":4.199e-5,"MEAN_MOTION_DDOT":0},{"OBJECT_NAME":"KUIPER-00044","OBJECT_ID":"2025-134F","EPOCH":"2026-03-14T19:33:15.980256","MEAN_MOTION":14.79995104,"ECCENTRICITY":0.00078127,"INCLINATION":51.8986,"RA_OF_ASC_NODE":223.925,"ARG_OF_PERICENTER":293.2172,"MEAN_ANOMALY":66.7968,"EPHEMERIS_TYPE":0,"CLASSIFICATION_TYPE":"U","NORAD_CAT_ID":64505,"ELEMENT_SET_NO":999,"REV_AT_EPOCH":4064,"BSTAR":0.00068224379,"MEAN_MOTION_DOT":4.992e-5,"MEAN_MOTION_DDOT":0}]
